{
"type": "FeatureCollection",
"name": "nueva zona",
"crs": { "type": "name", "properties": { "name": "urn:ogc:def:crs:OGC:1.3:CRS84" } },
"features": [
{ "type": "Feature", "properties": { }, "geometry": { "type": "Polygon", "coordinates": [ [ [ -58.802505858920497, -27.534798130159199 ], [ -58.802447899020002, -27.534468070277502 ], [ -58.802447898475997, -27.534468070353412 ], [ -58.802505858920497, -27.534798130159199 ] ] ] } },
{ "type": "Feature", "properties": { }, "geometry": { "type": "Polygon", "coordinates": [ [ [ -58.800768837578303, -27.525196494913502 ], [ -58.8006590625887, -27.5246131935811 ], [ -58.799263334124198, -27.5248219543173 ], [ -58.799241273370498, -27.525424967161999 ], [ -58.800768837578303, -27.525196494913502 ] ] ] } },
{ "type": "Feature", "properties": { }, "geometry": { "type": "Polygon", "coordinates": [ [ [ -58.801120916162901, -27.527067264818101 ], [ -58.800802317353501, -27.525374392218101 ], [ -58.800203315797397, -27.525464013061899 ], [ -58.800522428605603, -27.527159177952498 ], [ -58.801120916162901, -27.527067264818101 ] ] ] } },
{ "type": "Feature", "properties": { }, "geometry": { "type": "Polygon", "coordinates": [ [ [ -58.801321295819797, -27.528131956516098 ], [ -58.801154410289797, -27.527245232883899 ], [ -58.800555931221702, -27.5273371450503 ], [ -58.800722424840799, -27.5282215573645 ], [ -58.801321295819797, -27.528131956516098 ] ] ] } },
{ "type": "Feature", "properties": { }, "geometry": { "type": "Polygon", "coordinates": [ [ [ -58.8017612824354, -27.5305579517251 ], [ -58.801538232771605, -27.529287681980549 ], [ -58.800013187940699, -27.529500485712799 ], [ -58.800236220651797, -27.530770759318099 ], [ -58.8017612824354, -27.5305579517251 ] ] ] } },
{ "type": "Feature", "properties": { }, "geometry": { "type": "Polygon", "coordinates": [ [ [ -58.802011730340197, -27.5319842232464 ], [ -58.801792588416099, -27.530736237442099 ], [ -58.800267523853101, -27.530949043299199 ], [ -58.800486648776101, -27.532197030934402 ], [ -58.802011730340197, -27.5319842232464 ] ] ] } },
{ "type": "Feature", "properties": { }, "geometry": { "type": "Polygon", "coordinates": [ [ [ -58.802166134121101, -27.532863518142999 ], [ -58.802058689896398, -27.532251648722902 ], [ -58.8005336046891, -27.5324644568034 ], [ -58.800641040577901, -27.5330763271213 ], [ -58.802166134121101, -27.532863518142999 ] ] ] } },
{ "type": "Feature", "properties": { }, "geometry": { "type": "Polygon", "coordinates": [ [ [ -58.802505858920497, -27.534798130159199 ], [ -58.802447898475997, -27.534468070353412 ], [ -58.800922783635301, -27.534680881607699 ], [ -58.80098281719998, -27.535022777224768 ], [ -58.802505858920497, -27.534798130159199 ] ] ] } },
{ "type": "Feature", "properties": { }, "geometry": { "type": "Polygon", "coordinates": [ [ [ -58.798332809242609, -27.535413650635082 ], [ -58.80058336624316, -27.535081695824356 ], [ -58.800522787798201, -27.534736693246199 ], [ -58.798269160570896, -27.535051120389099 ], [ -58.798332809242609, -27.535413650635082 ] ] ] } },
{ "type": "Feature", "properties": { }, "geometry": { "type": "Polygon", "coordinates": [ [ [ -58.795508343180003, -27.535830256434 ], [ -58.798133083212626, -27.535443110016235 ], [ -58.798069161787801, -27.5350790224518 ], [ -58.7954279048449, -27.5354474787923 ], [ -58.795508343180003, -27.535830256434 ] ] ] } },
{ "type": "Feature", "properties": { }, "geometry": { "type": "Polygon", "coordinates": [ [ [ -58.798393759477499, -27.523602966718201 ], [ -58.799988933139765, -27.523364377941562 ], [ -58.799968838972717, -27.523257599902443 ], [ -58.799948744333669, -27.523150819355145 ], [ -58.799928681003223, -27.523044205178085 ], [ -58.800351878054698, -27.522980905334101 ], [ -58.799826863505203, -27.522590253466898 ], [ -58.799618828075801, -27.5225690253063 ], [ -58.799400127485498, -27.522618336810599 ], [ -58.7991838034756, -27.522744300346599 ], [ -58.799004556152099, -27.5229435719504 ], [ -58.798393759477499, -27.523602966718201 ] ] ] } },
{ "type": "Feature", "properties": { }, "geometry": { "type": "Polygon", "coordinates": [ [ [ -58.799988933139765, -27.523364377941562 ], [ -58.800412131982398, -27.523301080448299 ], [ -58.800351878054698, -27.522980905334101 ], [ -58.799928681003223, -27.523044205178085 ], [ -58.799948744333669, -27.523150819355145 ], [ -58.799968838972717, -27.523257599902443 ], [ -58.799988933139765, -27.523364377941562 ] ] ] } },
{ "type": "Feature", "properties": { }, "geometry": { "type": "Polygon", "coordinates": [ [ [ -58.795284678446997, -27.534006255245 ], [ -58.795293231143901, -27.534046264136499 ], [ -58.795266346450603, -27.534533515453699 ], [ -58.795324618389799, -27.534955971410302 ], [ -58.7953906152716, -27.5352700300433 ], [ -58.798037861252297, -27.534900738155201 ], [ -58.797818760016902, -27.533652747846801 ], [ -58.795284678446997, -27.534006255245 ] ] ] } },
{ "type": "Feature", "properties": { }, "geometry": { "type": "Polygon", "coordinates": [ [ [ -58.796155405559901, -27.533075285980999 ], [ -58.796123961865597, -27.5330955033028 ], [ -58.795721810106301, -27.533379610183399 ], [ -58.795314207711101, -27.533585423385301 ], [ -58.795227560118398, -27.533694108489001 ], [ -58.795223987955197, -27.533722348783101 ], [ -58.795246763956399, -27.533828893702399 ], [ -58.797787460199487, -27.533474463483802 ], [ -58.797680039908499, -27.532862591487302 ], [ -58.796155405559901, -27.533075285980999 ] ] ] } },
{ "type": "Feature", "properties": { }, "geometry": { "type": "Polygon", "coordinates": [ [ [ -58.797523337828302, -27.531331919578701 ], [ -58.797522714026499, -27.531347119844298 ], [ -58.7972931822381, -27.531816474289599 ], [ -58.796985718011904, -27.532308175447501 ], [ -58.796652797476803, -27.5327319230501 ], [ -58.800086662378, -27.5322528415386 ], [ -58.799867541913997, -27.531004853423301 ], [ -58.797523337828302, -27.531331919578701 ] ] ] } },
{ "type": "Feature", "properties": { }, "geometry": { "type": "Polygon", "coordinates": [ [ [ -58.797549489175204, -27.5298442312886 ], [ -58.797533592049, -27.530048897431001 ], [ -58.797515531266797, -27.5304114430594 ], [ -58.797515930477203, -27.530730362215799 ], [ -58.797539088668401, -27.530948114584501 ], [ -58.797530876614701, -27.531148220424701 ], [ -58.799836239441603, -27.530826569897599 ], [ -58.799613211176798, -27.5295562952798 ], [ -58.797549489175204, -27.5298442312886 ] ] ] } },
{ "type": "Feature", "properties": { }, "geometry": { "type": "Polygon", "coordinates": [ [ [ -58.798254241758102, -27.527986693971901 ], [ -58.7979635761113, -27.528374637086699 ], [ -58.797730284506898, -27.528702529739199 ], [ -58.797635952429196, -27.529276857049599 ], [ -58.797619252018201, -27.529377870535999 ], [ -58.799407165231699, -27.529128415741901 ], [ -58.799281774203997, -27.528986752643998 ], [ -58.799160140077703, -27.528842509967198 ], [ -58.7990438303584, -27.528694818485199 ], [ -58.798933857259001, -27.528543318351101 ], [ -58.798833144368999, -27.528386784664999 ], [ -58.798746123388902, -27.528223856457402 ], [ -58.798677985547002, -27.528053932682099 ], [ -58.798636620264602, -27.527877286091901 ], [ -58.798622404424101, -27.527697276961302 ], [ -58.798630099320597, -27.527516952694601 ], [ -58.798653340986597, -27.527337691445801 ], [ -58.798684794575202, -27.527159428637798 ], [ -58.798718500795701, -27.526981493332599 ], [ -58.798751225564999, -27.5268034124812 ], [ -58.798782627938998, -27.526625142500102 ], [ -58.798810493616699, -27.526459434464002 ], [ -58.798028696269398, -27.526362705981199 ], [ -58.798009091347502, -27.526535889637302 ], [ -58.7980425698508, -27.526662083682002 ], [ -58.7984424055429, -27.5274849951284 ], [ -58.798254241758102, -27.527986693971901 ] ] ] } },
{ "type": "Feature", "properties": { }, "geometry": { "type": "Polygon", "coordinates": [ [ [ -58.7997244988821, -27.527281716280498 ], [ -58.800322945972802, -27.527189813023298 ], [ -58.800160925082402, -27.5263291365677 ], [ -58.799560942642799, -27.526412858659999 ], [ -58.7997244988821, -27.527281716280498 ] ] ] } },
{ "type": "Feature", "properties": { }, "geometry": { "type": "Polygon", "coordinates": [ [ [ -58.8000036915764, -27.525493879638798 ], [ -58.799227495064102, -27.525610006602999 ], [ -58.799193704519197, -27.5259304582769 ], [ -58.799170200465198, -27.526109692366699 ], [ -58.7991441425809, -27.526288645606002 ], [ -58.800127486144802, -27.5261515029744 ], [ -58.8000036915764, -27.525493879638798 ] ] ] } },
{ "type": "Feature", "properties": { }, "geometry": { "type": "Polygon", "coordinates": [ [ [ -58.798018756251601, -27.533624846058299 ], [ -58.798143394818439, -27.534334774098109 ], [ -58.798237859716799, -27.534872836126802 ], [ -58.800491483354499, -27.534558409370199 ], [ -58.800272354763202, -27.5333104220061 ], [ -58.798018756251601, -27.533624846058299 ] ] ] } },
{ "type": "Feature", "properties": { }, "geometry": { "type": "Polygon", "coordinates": [ [ [ -58.802773819543603, -27.536324027513199 ], [ -58.802773819543589, -27.536324027513203 ], [ -58.802773851927249, -27.536324211916845 ], [ -58.802773819543603, -27.536324027513199 ] ] ] } },
{ "type": "Feature", "properties": { }, "geometry": { "type": "Polygon", "coordinates": [ [ [ -58.799360947847298, -27.526440765507399 ], [ -58.799114740693703, -27.526475120312 ], [ -58.799101969576597, -27.5265526958663 ], [ -58.799071476949898, -27.5267310913374 ], [ -58.799039583590897, -27.526909292047701 ], [ -58.799006463575502, -27.527087314833299 ], [ -58.798972874370101, -27.527265267740599 ], [ -58.799517773504199, -27.5272738766601 ], [ -58.799360947847298, -27.526440765507399 ] ] ] } },
{ "type": "Feature", "properties": { }, "geometry": { "type": "Polygon", "coordinates": [ [ [ -58.798178414473902, -27.525328896369398 ], [ -58.798937896282602, -27.525413819310199 ], [ -58.798958582173903, -27.524848429877 ], [ -58.7985318619994, -27.5248795688819 ], [ -58.7984308524344, -27.524885206507602 ], [ -58.7983300666003, -27.524876980618298 ], [ -58.798239474044401, -27.5248367547714 ], [ -58.798169526315696, -27.5247715450142 ], [ -58.798077704067097, -27.524645121664101 ], [ -58.798185748593603, -27.52510912341959 ], [ -58.7981920155868, -27.525136037285002 ], [ -58.798178414473902, -27.525328896369398 ] ] ] } },
{ "type": "Feature", "properties": { }, "geometry": { "type": "Polygon", "coordinates": [ [ [ -58.7992235675556, -27.5284457985953 ], [ -58.799724279627704, -27.528370889844201 ], [ -58.799551849431303, -27.527454898042901 ], [ -58.7989437023896, -27.527445289857901 ], [ -58.798928206224701, -27.527600055949701 ], [ -58.798930213917401, -27.527780501789 ], [ -58.7989639870692, -27.527958427037198 ], [ -58.799030783580797, -27.528128769158499 ], [ -58.799120015405798, -27.5282907441911 ], [ -58.7992235675556, -27.5284457985953 ] ] ] } },
{ "type": "Feature", "properties": { }, "geometry": { "type": "Polygon", "coordinates": [ [ [ -58.802773819543589, -27.536324027513203 ], [ -58.801250762531502, -27.536548707843501 ], [ -58.801533231791701, -27.538157325498499 ], [ -58.803058396832697, -27.537944508746399 ], [ -58.802773851927249, -27.536324211916845 ], [ -58.802773819543589, -27.536324027513203 ] ] ] } },
{ "type": "Feature", "properties": { }, "geometry": { "type": "Polygon", "coordinates": [ [ [ -58.80044562378017, -27.523479048109625 ], [ -58.800046378127412, -27.523538766628452 ], [ -58.800130108319678, -27.523983683937107 ], [ -58.800529354430147, -27.523923966570536 ], [ -58.80044562378017, -27.523479048109625 ] ] ] } },
{ "type": "Feature", "properties": { }, "geometry": { "type": "Polygon", "coordinates": [ [ [ -58.800356448294693, -27.52736778027781 ], [ -58.79975800030774, -27.527459684036771 ], [ -58.799923911144163, -27.528341117217131 ], [ -58.800522795712837, -27.528251424510316 ], [ -58.800356448294693, -27.52736778027781 ] ] ] } },
{ "type": "Feature", "properties": { }, "geometry": { "type": "Polygon", "coordinates": [ [ [ -58.801354790380863, -27.528309923762706 ], [ -58.801455039037606, -27.528842652379382 ], [ -58.799754599569894, -27.529080024141575 ], [ -58.799343106151731, -27.528610284539386 ], [ -58.801354790380863, -27.528309923762706 ] ] ] } },
{ "type": "Feature", "properties": { }, "geometry": { "type": "Polygon", "coordinates": [ [ [ -58.803005632453711, -27.534728402151732 ], [ -58.803272855056306, -27.536250409149055 ], [ -58.795498328964207, -27.53739725641168 ], [ -58.795390246747473, -27.537312387729507 ], [ -58.795562537600652, -27.537070688408125 ], [ -58.795632549620777, -27.536586175515723 ], [ -58.795585843989343, -27.536135647237835 ], [ -58.795508339800961, -27.535830255781132 ], [ -58.803005632453711, -27.534728402151732 ] ] ] } },
{ "type": "Feature", "properties": { }, "geometry": { "type": "Polygon", "coordinates": [ [ [ -58.800851271366149, -27.536607636428403 ], [ -58.801133223681852, -27.538213138156863 ], [ -58.79887952913699, -27.538527572758799 ], [ -58.798600723513466, -27.536939610703268 ], [ -58.800851271366149, -27.536607636428403 ] ] ] } },
{ "type": "Feature", "properties": { }, "geometry": { "type": "Polygon", "coordinates": [ [ [ -58.798400983381178, -27.536969110753123 ], [ -58.798679521906664, -27.538555475800642 ], [ -58.794823016623234, -27.53909343812667 ], [ -58.7955258304208, -27.538190695854073 ], [ -58.795634047038284, -27.537503963243243 ], [ -58.795498349520983, -27.53739725532191 ], [ -58.798400983381178, -27.536969110753123 ] ] ] } },
{ "type": "Feature", "properties": { }, "geometry": { "type": "Polygon", "coordinates": [ [ [ -58.802338323911854, -27.5338440776715 ], [ -58.802416591480139, -27.534289786731883 ], [ -58.800891477991414, -27.53450259788065 ], [ -58.800813216180842, -27.534056888250937 ], [ -58.802338323911854, -27.5338440776715 ] ] ] } },
{ "type": "Feature", "properties": { }, "geometry": { "type": "Polygon", "coordinates": [ [ [ -58.802197441209486, -27.533041800898971 ], [ -58.800672344940097, -27.533254610995069 ], [ -58.800813218731122, -27.534056889472307 ], [ -58.802338323782898, -27.533844077672128 ], [ -58.802197441209486, -27.533041800898971 ] ] ] } },
{ "type": "Feature", "properties": { }, "geometry": { "type": "Polygon", "coordinates": [ [ [ -58.800133617334055, -27.532520267510886 ], [ -58.797880034729154, -27.532834689849945 ], [ -58.797987456115656, -27.533446561729875 ], [ -58.800241050925578, -27.533132137907316 ], [ -58.800133617334055, -27.532520267510886 ] ] ] } },
{ "type": "Feature", "properties": { }, "geometry": { "type": "Polygon", "coordinates": [ [ [ -58.798577289586198, -27.525555407530494 ], [ -58.798538453465447, -27.525805418700322 ], [ -58.798135509074619, -27.525763397524038 ], [ -58.798165184645129, -27.525509255716138 ], [ -58.798577289586198, -27.525555407530494 ] ] ] } },
{ "type": "Feature", "properties": { }, "geometry": { "type": "Polygon", "coordinates": [ [ [ -58.798135321793282, -27.525763496779295 ], [ -58.798125370864724, -27.525834375323033 ], [ -58.798121530155456, -27.525881860455797 ], [ -58.798113892381359, -27.525981086052631 ], [ -58.798058835520848, -27.526184523162819 ], [ -58.798838861680132, -27.526281000521983 ], [ -58.798888553579495, -27.5259256486566 ], [ -58.798903218105792, -27.525795762852276 ], [ -58.798913332700899, -27.525711278159484 ], [ -58.798923109051763, -27.525593263638349 ], [ -58.798577292462177, -27.525555413012068 ], [ -58.79853845438079, -27.525805419180951 ], [ -58.798135321793282, -27.525763496779295 ] ] ] } },
{ "type": "Feature", "properties": { }, "geometry": { "type": "Polygon", "coordinates": [ [ [ -58.800529354428683, -27.523923967242649 ], [ -58.800608823800417, -27.524346242448132 ], [ -58.799170454456899, -27.524561380903872 ], [ -58.799174779049046, -27.524107464145125 ], [ -58.799094552336776, -27.523681129938122 ], [ -58.800046378721852, -27.523538766860671 ], [ -58.800130108286233, -27.523983683952107 ], [ -58.800529354428683, -27.523923967242649 ] ] ] } },
{ "type": "Feature", "properties": { }, "geometry": { "type": "Polygon", "coordinates": [ [ [ -58.798894929548091, -27.523710986663186 ], [ -58.798388959729778, -27.523786660238002 ], [ -58.798163900628204, -27.524247885871461 ], [ -58.798373582430159, -27.524558263520642 ], [ -58.798406856785931, -27.524592193189875 ], [ -58.798454327762038, -27.524607819440636 ], [ -58.798454327923714, -27.524607819446324 ], [ -58.798504932599265, -27.524609619823941 ], [ -58.798508179456846, -27.524609379028284 ], [ -58.798712498456517, -27.52459496235922 ], [ -58.798967892212623, -27.524576162988634 ], [ -58.798972241845895, -27.524121805605368 ], [ -58.798894929548091, -27.523710986663186 ] ] ] } },
{ "type": "Feature", "properties": { }, "geometry": { "type": "Polygon", "coordinates": [ [ [ -58.79962422327668, -27.525779287563296 ], [ -58.799202990232317, -27.525842395323345 ], [ -58.799173707587023, -27.526083323030615 ], [ -58.799667562310383, -27.526009299232179 ], [ -58.79962422327668, -27.525779287563296 ] ] ] } },
{ "type": "Feature", "properties": { }, "geometry": { "type": "Polygon", "coordinates": [ [ [ -58.798532915456043, -27.524879113481216 ], [ -58.798499359415956, -27.525134885075669 ], [ -58.798186169708465, -27.525109531623155 ], [ -58.798077706799702, -27.524645118358603 ], [ -58.798169526293961, -27.524771545045208 ], [ -58.798239473943248, -27.524836754669771 ], [ -58.798330066600215, -27.524876980618128 ], [ -58.798430852667821, -27.524885207097313 ], [ -58.798532915456043, -27.524879113481216 ] ] ] } },
{ "type": "Feature", "properties": { }, "geometry": { "type": "Polygon", "coordinates": [ [ [ -58.800659062588579, -27.52461319358099 ], [ -58.799263318550544, -27.524821959927554 ], [ -58.799252307417483, -27.525123458134267 ], [ -58.800713949506203, -27.524904841179325 ], [ -58.800659062588579, -27.52461319358099 ] ] ] } },
{ "type": "Feature", "properties": { }, "geometry": { "type": "Polygon", "coordinates": [ [ [ -58.80071394397568, -27.524904835648869 ], [ -58.799252303746989, -27.525123460754337 ], [ -58.799241273370356, -27.52542496716222 ], [ -58.800768837576022, -27.525196494916237 ], [ -58.80071394397568, -27.524904835648869 ] ] ] } }
]
}
